[{"OBJECT_NAME":"KUIPER-00203","OBJECT_ID":"2026-030K","EPOCH":"2026-03-05T04:00:01.999584","MEAN_MOTION":15.24274515,"ECCENTRICITY":0.0011499,"INCLINATION":51.8818,"RA_OF_ASC_NODE":241.3979,"ARG_OF_PERICENTER":47.5,"MEAN_ANOMALY":218.4829,"EPHEMERIS_TYPE":0,"CLASSIFICATION_TYPE":"U","NORAD_CAT_ID":67773,"ELEMENT_SET_NO":999,"REV_AT_EPOCH":296,"BSTAR":-0.053878,"MEAN_MOTION_DOT":-0.01228279,"MEAN_MOTION_DDOT":0},{"OBJECT_NAME":"KUIPER-00205","OBJECT_ID":"2026-030L","EPOCH":"2026-03-05T00:05:29.671296","MEAN_MOTION":15.36172548,"ECCENTRICITY":0.0002857,"INCLINATION":51.8811,"RA_OF_ASC_NODE":241.6644,"ARG_OF_PERICENTER":6.8945,"MEAN_ANOMALY":353.208,"EPHEMERIS_TYPE":0,"CLASSIFICATION_TYPE":"U","NORAD_CAT_ID":67774,"ELEMENT_SET_NO":999,"REV_AT_EPOCH":437,"BSTAR":0.00098598,"MEAN_MOTION_DOT":0.0003507,"MEAN_MOTION_DDOT":0},{"OBJECT_NAME":"KUIPER-00208","OBJECT_ID":"2026-030M","EPOCH":"2026-03-04T23:26:06.357408","MEAN_MOTION":15.32442383,"ECCENTRICITY":0.0014385,"INCLINATION":51.8826,"RA_OF_ASC_NODE":242.2265,"ARG_OF_PERICENTER":47.2637,"MEAN_ANOMALY":312.9556,"EPHEMERIS_TYPE":0,"CLASSIFICATION_TYPE":"U","NORAD_CAT_ID":67775,"ELEMENT_SET_NO":999,"REV_AT_EPOCH":436,"BSTAR":-4.9138e-5,"MEAN_MOTION_DOT":-1.946e-5,"MEAN_MOTION_DDOT":0},{"OBJECT_NAME":"KUIPER-00209","OBJECT_ID":"2026-030N","EPOCH":"2026-03-05T02:41:01.678272","MEAN_MOTION":15.30687024,"ECCENTRICITY":0.0013055,"INCLINATION":51.8813,"RA_OF_ASC_NODE":241.6303,"ARG_OF_PERICENTER":54.3648,"MEAN_ANOMALY":305.8549,"EPHEMERIS_TYPE":0,"CLASSIFICATION_TYPE":"U","NORAD_CAT_ID":67776,"ELEMENT_SET_NO":999,"REV_AT_EPOCH":438,"BSTAR":-0.0011448,"MEAN_MOTION_DOT":-0.00034759,"MEAN_MOTION_DDOT":0},{"OBJECT_NAME":"KUIPER-00213","OBJECT_ID":"2026-030P","EPOCH":"2026-03-05T01:01:03.188928","MEAN_MOTION":15.32561723,"ECCENTRICITY":0.0015039,"INCLINATION":51.8795,"RA_OF_ASC_NODE":241.9088,"ARG_OF_PERICENTER":51.2941,"MEAN_ANOMALY":308.9386,"EPHEMERIS_TYPE":0,"CLASSIFICATION_TYPE":"U","NORAD_CAT_ID":67777,"ELEMENT_SET_NO":999,"REV_AT_EPOCH":437,"BSTAR":0.0013424,"MEAN_MOTION_DOT":0.0004285,"MEAN_MOTION_DDOT":0},{"OBJECT_NAME":"KUIPER-00214","OBJECT_ID":"2026-030Q","EPOCH":"2026-03-04T23:56:25.202688","MEAN_MOTION":15.36551093,"ECCENTRICITY":3.21e-5,"INCLINATION":51.8838,"RA_OF_ASC_NODE":241.6296,"ARG_OF_PERICENTER":154.9541,"MEAN_ANOMALY":205.1461,"EPHEMERIS_TYPE":0,"CLASSIFICATION_TYPE":"U","NORAD_CAT_ID":67778,"ELEMENT_SET_NO":999,"REV_AT_EPOCH":437,"BSTAR":0.00021009,"MEAN_MOTION_DOT":7.232e-5,"MEAN_MOTION_DDOT":0},{"OBJECT_NAME":"KUIPER-00215","OBJECT_ID":"2026-030R","EPOCH":"2026-03-04T23:05:57.326784","MEAN_MOTION":15.34245911,"ECCENTRICITY":0.0009991,"INCLINATION":51.8839,"RA_OF_ASC_NODE":242.1372,"ARG_OF_PERICENTER":47.0518,"MEAN_ANOMALY":313.1303,"EPHEMERIS_TYPE":0,"CLASSIFICATION_TYPE":"U","NORAD_CAT_ID":67779,"ELEMENT_SET_NO":999,"REV_AT_EPOCH":436,"BSTAR":0.0010139,"MEAN_MOTION_DOT":0.00033944,"MEAN_MOTION_DDOT":0},{"OBJECT_NAME":"KUIPER-00218","OBJECT_ID":"2026-030S","EPOCH":"2026-03-04T22:52:28.651296","MEAN_MOTION":15.34968269,"ECCENTRICITY":0.0006601,"INCLINATION":51.8836,"RA_OF_ASC_NODE":242.0756,"ARG_OF_PERICENTER":36.8818,"MEAN_ANOMALY":323.262,"EPHEMERIS_TYPE":0,"CLASSIFICATION_TYPE":"U","NORAD_CAT_ID":67780,"ELEMENT_SET_NO":999,"REV_AT_EPOCH":436,"BSTAR":0.0010344,"MEAN_MOTION_DOT":0.00035428,"MEAN_MOTION_DDOT":0},{"OBJECT_NAME":"KUIPER-00220","OBJECT_ID":"2026-030T","EPOCH":"2026-03-04T23:01:05.464992","MEAN_MOTION":15.34540092,"ECCENTRICITY":0.0008196,"INCLINATION":51.881,"RA_OF_ASC_NODE":242.1075,"ARG_OF_PERICENTER":43.2976,"MEAN_ANOMALY":316.8653,"EPHEMERIS_TYPE":0,"CLASSIFICATION_TYPE":"U","NORAD_CAT_ID":67781,"ELEMENT_SET_NO":999,"REV_AT_EPOCH":436,"BSTAR":0.00082308,"MEAN_MOTION_DOT":0.00027709,"MEAN_MOTION_DDOT":0},{"OBJECT_NAME":"KUIPER-00222","OBJECT_ID":"2026-030U","EPOCH":"2026-03-04T23:32:19.148352","MEAN_MOTION":15.3242289,"ECCENTRICITY":0.00177,"INCLINATION":51.8797,"RA_OF_ASC_NODE":242.2438,"ARG_OF_PERICENTER":46.4411,"MEAN_ANOMALY":313.804,"EPHEMERIS_TYPE":0,"CLASSIFICATION_TYPE":"U","NORAD_CAT_ID":67782,"ELEMENT_SET_NO":999,"REV_AT_EPOCH":436,"BSTAR":0.0024763,"MEAN_MOTION_DOT":0.00079505,"MEAN_MOTION_DDOT":0},{"OBJECT_NAME":"KUIPER-00223","OBJECT_ID":"2026-030V","EPOCH":"2026-03-04T23:10:37.827840","MEAN_MOTION":15.34035132,"ECCENTRICITY":0.0012253,"INCLINATION":51.8822,"RA_OF_ASC_NODE":242.1544,"ARG_OF_PERICENTER":47.0413,"MEAN_ANOMALY":313.1598,"EPHEMERIS_TYPE":0,"CLASSIFICATION_TYPE":"U","NORAD_CAT_ID":67783,"ELEMENT_SET_NO":999,"REV_AT_EPOCH":436,"BSTAR":0.00083998,"MEAN_MOTION_DOT":0.00027866,"MEAN_MOTION_DDOT":0},{"OBJECT_NAME":"KUIPER-00225","OBJECT_ID":"2026-030W","EPOCH":"2026-03-05T00:13:36.441984","MEAN_MOTION":15.35688077,"ECCENTRICITY":0.0004128,"INCLINATION":51.881,"RA_OF_ASC_NODE":241.6996,"ARG_OF_PERICENTER":26.5884,"MEAN_ANOMALY":333.5314,"EPHEMERIS_TYPE":0,"CLASSIFICATION_TYPE":"U","NORAD_CAT_ID":67784,"ELEMENT_SET_NO":999,"REV_AT_EPOCH":437,"BSTAR":0.00080935,"MEAN_MOTION_DOT":0.00028249,"MEAN_MOTION_DDOT":0},{"OBJECT_NAME":"KUIPER-00226","OBJECT_ID":"2026-030X","EPOCH":"2026-03-04T23:48:01.722240","MEAN_MOTION":15.31268779,"ECCENTRICITY":0.0019968,"INCLINATION":51.8805,"RA_OF_ASC_NODE":242.3152,"ARG_OF_PERICENTER":59.9274,"MEAN_ANOMALY":300.3687,"EPHEMERIS_TYPE":0,"CLASSIFICATION_TYPE":"U","NORAD_CAT_ID":67785,"ELEMENT_SET_NO":999,"REV_AT_EPOCH":436,"BSTAR":0.0012009,"MEAN_MOTION_DOT":0.00036832,"MEAN_MOTION_DDOT":0},{"OBJECT_NAME":"KUIPER-00259","OBJECT_ID":"2026-030Y","EPOCH":"2026-03-04T22:55:21.975744","MEAN_MOTION":15.34866797,"ECCENTRICITY":0.0008258,"INCLINATION":51.8811,"RA_OF_ASC_NODE":242.082,"ARG_OF_PERICENTER":35.7954,"MEAN_ANOMALY":324.3583,"EPHEMERIS_TYPE":0,"CLASSIFICATION_TYPE":"U","NORAD_CAT_ID":67786,"ELEMENT_SET_NO":999,"REV_AT_EPOCH":436,"BSTAR":0.0010341,"MEAN_MOTION_DOT":0.00035313,"MEAN_MOTION_DDOT":0},{"OBJECT_NAME":"KUIPER-00260","OBJECT_ID":"2026-030Z","EPOCH":"2026-03-05T00:02:46.840992","MEAN_MOTION":15.36252409,"ECCENTRICITY":0.000101,"INCLINATION":51.8797,"RA_OF_ASC_NODE":241.6502,"ARG_OF_PERICENTER":51.9851,"MEAN_ANOMALY":308.1227,"EPHEMERIS_TYPE":0,"CLASSIFICATION_TYPE":"U","NORAD_CAT_ID":67787,"ELEMENT_SET_NO":999,"REV_AT_EPOCH":428,"BSTAR":0.00088945,"MEAN_MOTION_DOT":0.00031664,"MEAN_MOTION_DDOT":0},{"OBJECT_NAME":"KUIPER-00262","OBJECT_ID":"2026-030AA","EPOCH":"2026-03-04T23:57:49.921344","MEAN_MOTION":15.36571962,"ECCENTRICITY":3.55e-5,"INCLINATION":51.8807,"RA_OF_ASC_NODE":241.6308,"ARG_OF_PERICENTER":117.8319,"MEAN_ANOMALY":242.2704,"EPHEMERIS_TYPE":0,"CLASSIFICATION_TYPE":"U","NORAD_CAT_ID":67788,"ELEMENT_SET_NO":999,"REV_AT_EPOCH":437,"BSTAR":0.0010341,"MEAN_MOTION_DOT":0.00037288,"MEAN_MOTION_DDOT":0},{"OBJECT_NAME":"KUIPER-00266","OBJECT_ID":"2026-030AB","EPOCH":"2026-03-04T23:54:31.772448","MEAN_MOTION":15.30959366,"ECCENTRICITY":0.0022736,"INCLINATION":51.8805,"RA_OF_ASC_NODE":242.3416,"ARG_OF_PERICENTER":59.5056,"MEAN_ANOMALY":300.817,"EPHEMERIS_TYPE":0,"CLASSIFICATION_TYPE":"U","NORAD_CAT_ID":67789,"ELEMENT_SET_NO":999,"REV_AT_EPOCH":436,"BSTAR":0.00080059,"MEAN_MOTION_DOT":0.00024194,"MEAN_MOTION_DDOT":0}]
